$$SOE
2461295.500000000, A.D. 2026-Sep-12 00:00:00.0000, 2.842448957378884E+08, -2.700340571801344E+08, 7.020986802104080E+07,
2461302.500000000, A.D. 2026-Sep-19 00:00:00.0000, 2.912851168335282E+08, -2.607926112073494E+08, 6.770551855165437E+07,
2461309.500000000, A.D. 2026-Sep-26 00:00:00.0000, 2.980990138772140E+08, -2.513485677510455E+08, 6.514856326184674E+07,
2461316.500000000, A.D. 2026-Oct-03 00:00:00.0000, 3.046787083086418E+08, -2.417070884608795E+08, 6.254042442369609E+07,
2461323.500000000, A.D. 2026-Oct-10 00:00:00.0000, 3.110164332585133E+08, -2.318736900856677E+08, 5.988261814543934E+07,
2461330.500000000, A.D. 2026-Oct-17 00:00:00.0000, 3.171045545314316E+08, -2.218542453830234E+08, 5.717675450881907E+07,
2461337.500000000, A.D. 2026-Oct-24 00:00:00.0000, 3.229355921248529E+08, -2.116549827999324E+08, 5.442453734415857E+07,
2461344.500000000, A.D. 2026-Oct-31 00:00:00.0000, 3.285022422820579E+08, -2.012824849139935E+08, 5.162776360807081E+07,
2461351.500000000, A.D. 2026-Nov-07 00:00:00.0000, 3.337974003060559E+08, -1.907436854887467E+08, 4.878832231946290E+07,
2461358.500000000, A.D. 2026-Nov-14 00:00:00.0000, 3.388141842151916E+08, -1.800458641907791E+08, 4.590819309182012E+07,
2461365.500000000, A.D. 2026-Nov-21 00:00:00.0000, 3.435459573008453E+08, -1.691966382344921E+08, 4.298944447131530E+07,
2461372.500000000, A.D. 2026-Nov-28 00:00:00.0000, 3.479863484496320E+08, -1.582039539227038E+08, 4.003423191622893E+07,
2461379.500000000, A.D. 2026-Dec-05 00:00:00.0000, 3.521292736997524E+08, -1.470760787087843E+08, 3.704479502412708E+07,
2461386.500000000, A.D. 2026-Dec-12 00:00:00.0000, 3.559689590422540E+08, -1.358215906514398E+08, 3.402345424246930E+07,
2461393.500000000, A.D. 2026-Dec-19 00:00:00.0000, 3.594999624225630E+08, -1.244493652543441E+08, 3.097260723750957E+07,
2461400.500000000, A.D. 2026-Dec-26 00:00:00.0000, 3.627171946388746E+08, -1.129685605737100E+08, 2.789472486895425E+07,
2461407.500000000, A.D. 2027-Jan-02 00:00:00.0000, 3.656159392502586E+08, -1.013886008161362E+08, 2.479234673901634E+07,
2461414.500000000, A.D. 2027-Jan-09 00:00:00.0000, 3.681918714488088E+08, -8.971915845481721E+07, 2.166807632076877E+07,
2461421.500000000, A.D. 2027-Jan-16 00:00:00.0000, 3.704410757712114E+08, -7.797013492078495E+07, 1.852457568178719E+07,
2461428.500000000, A.D. 2027-Jan-23 00:00:00.0000, 3.723600625405798E+08, -6.615163999180377E+07, 1.536455981856649E+07,
2461435.500000000, A.D. 2027-Jan-30 00:00:00.0000, 3.739457830771532E+08, -5.427397002693803E+07, 1.219079060759150E+07,
2461442.500000000, A.D. 2027-Feb-06 00:00:00.0000, 3.751956439605846E+08, -4.234758482179178E+07, 9.006070392778508E+06,
2461449.500000000, A.D. 2027-Feb-13 00:00:00.0000, 3.761075197549843E+08, -3.038308199201213E+07, 5.813235386702343E+06,
2461456.500000000, A.D. 2027-Feb-20 00:00:00.0000, 3.766797617242129E+08, -1.839116981938794E+07, 2.615149077613161E+06,
2461463.500000000, A.D. 2027-Feb-27 00:00:00.0000, 3.769112038378617E+08, -6.382641933913604E+06, -5.853047065084204E+05,
2461470.500000000, A.D. 2027-Mar-06 00:00:00.0000, 3.768011690021060E+08, 5.631647923315762E+06, -3.785229152531388E+06,
2461477.500000000, A.D. 2027-Mar-13 00:00:00.0000, 3.763494738520172E+08, 1.764081293223819E+07, -6.981721874284210E+06,
2461484.500000000, A.D. 2027-Mar-20 00:00:00.0000, 3.755564309348370E+08, 2.963396100557964E+07, -1.017188229817660E+07,
2461491.500000000, A.D. 2027-Mar-27 00:00:00.0000, 3.744228484654166E+08, 4.160022264598438E+07, -1.335281903624771E+07,
2461498.500000000, A.D. 2027-Apr-03 00:00:00.0000, 3.729500278562312E+08, 5.352877861403739E+07, -1.652165721943954E+07,
2461505.500000000, A.D. 2027-Apr-10 00:00:00.0000, 3.711397591033878E+08, 6.540888724469532E+07, -1.967554574548056E+07,
2461512.500000000, A.D. 2027-Apr-17 00:00:00.0000, 3.689943140916128E+08, 7.722991121596687E+07, -2.281166439625968E+07,
2461519.500000000, A.D. 2027-Apr-24 00:00:00.0000, 3.665164379588355E+08, 8.898134353167200E+07, -2.592723079049259E+07,
2461526.500000000, A.D. 2027-May-01 00:00:00.0000, 3.637093389004638E+08, 1.006528325771417E+08, -2.901950715285632E+07,
2461533.500000000, A.D. 2027-May-08 00:00:00.0000, 3.605766768158901E+08, 1.122342068362606E+08, -3.208580682532050E+07,
2461540.500000000, A.D. 2027-May-15 00:00:00.0000, 3.571225494100040E+08, 1.237155000785245E+08, -3.512350026682170E+07,
2461547.500000000, A.D. 2027-May-22 00:00:00.0000, 3.533514743174657E+08, 1.350869742946972E+08, -3.813002057544310E+07,
2461554.500000000, A.D. 2027-May-29 00:00:00.0000, 3.492683707487431E+08, 1.463391387906615E+08, -4.110286893154823E+07,
2461561.500000000, A.D. 2027-Jun-05 00:00:00.0000, 3.448785416859384E+08, 1.574627684638900E+08, -4.403961976056029E+07,
2461568.500000000, A.D. 2027-Jun-12 00:00:00.0000, 3.401876547704034E+08, 1.684489216082793E+08, -4.693792537273139E+07,
2461575.500000000, A.D. 2027-Jun-19 00:00:00.0000, 3.352017217088404E+08, 1.792889562469896E+08, -4.979552010723051E+07,
2461582.500000000, A.D. 2027-Jun-26 00:00:00.0000, 3.299270766419508E+08, 1.899745446863092E+08, -5.261022401417002E+07,
2461589.500000000, A.D. 2027-Jul-03 00:00:00.0000, 3.243703537772756E+08, 2.004976862702749E+08, -5.537994607840340E+07,
2461596.500000000, A.D. 2027-Jul-10 00:00:00.0000, 3.185384644930268E+08, 2.108507183307080E+08, -5.810268698540093E+07,
2461603.500000000, A.D. 2027-Jul-17 00:00:00.0000, 3.124385741150094E+08, 2.210263252936957E+08, -6.077654143764304E+07,
2461610.500000000, A.D. 2027-Jul-24 00:00:00.0000, 3.060780786821677E+08, 2.310175458942590E+08, -6.339970004667574E+07,
2461617.500000000, A.D. 2027-Jul-31 00:00:00.0000, 2.994645822640564E+08, 2.408177787632255E+08, -6.597045082857892E+07,
2461624.500000000, A.D. 2027-Aug-07 00:00:00.0000, 2.926058747713127E+08, 2.504207875775394E+08, -6.848718020217471E+07,
2461631.500000000, A.D. 2027-Aug-14 00:00:00.0000, 2.855099080866805E+08, 2.598207055738431E+08, -7.094837331314883E+07,
2461638.500000000, A.D. 2027-Aug-21 00:00:00.0000, 2.781847712587388E+08, 2.690120361311149E+08, -7.335261403399244E+07,
2461645.500000000, A.D. 2027-Aug-28 00:00:00.0000, 2.706386683068898E+08, 2.779896507002637E+08, -7.569858487802842E+07,
2461652.500000000, A.D. 2027-Sep-04 00:00:00.0000, 2.628798975573664E+08, 2.867487866614532E+08, -7.798506653658687E+07,
2461659.500000000, A.D. 2027-Sep-11 00:00:00.0000, 2.549168312034833E+08, 2.952850445347673E+08, -8.021093698871225E+07,
2461666.500000000, A.D. 2027-Sep-18 00:00:00.0000, 2.467578953017607E+08, 3.035943839865054E+08, -8.237517027383390E+07,
2461673.500000000, A.D. 2027-Sep-25 00:00:00.0000, 2.384115505000207E+08, 3.116731186489380E+08, -8.447683498075269E+07,
2461680.500000000, A.D. 2027-Oct-02 00:00:00.0000, 2.298862736282900E+08, 3.195179098782912E+08, -8.651509248401219E+07,
2461687.500000000, A.D. 2027-Oct-09 00:00:00.0000, 2.211905402196589E+08, 3.271257595443296E+08, -8.848919495660597E+07,
2461694.500000000, A.D. 2027-Oct-16 00:00:00.0000, 2.123328080583808E+08, 3.344940018942271E+08, -9.039848319565421E+07,
2461701.500000000, A.D. 2027-Oct-23 00:00:00.0000, 2.033215020394565E+08, 3.416202945815832E+08, -9.224238431144571E+07,
2461708.500000000, A.D. 2027-Oct-30 00:00:00.0000, 1.941650007304364E+08, 3.485026095652004E+08, -9.402040929013839E+07,
2461715.500000000, A.D. 2027-Nov-06 00:00:00.0000, 1.848716234796399E+08, 3.551392250942279E+08, -9.573215025535639E+07,
2461722.500000000, A.D. 2027-Nov-13 00:00:00.0000, 1.754496160813128E+08, 3.615287167869186E+08, -9.737727743737769E+07,
2461729.500000000, A.D. 2027-Nov-20 00:00:00.0000, 1.659071378891281E+08, 3.676699457023721E+08, -9.895553631667447E+07,
2461736.500000000, A.D. 2027-Nov-27 00:00:00.0000, 1.562522519832104E+08, 3.735620464489732E+08, -1.004667448697443E+08,
2461743.500000000, A.D. 2027-Dec-04 00:00:00.0000, 1.464929163464533E+08, 3.792044163136757E+08, -1.019107906751289E+08,
2461750.500000000, A.D. 2027-Dec-11 00:00:00.0000, 1.366369754721106E+08, 3.845967045147989E+08, -1.032876279245678E+08,
2461757.500000000, A.D. 2027-Dec-18 00:00:00.0000, 1.266921526465003E+08, 3.897388013023073E+08, -1.045972744083138E+08,
2461764.500000000, A.D. 2027-Dec-25 00:00:00.0000, 1.166660430247959E+08, 3.946308269618299E+08, -1.058398085039795E+08,
2461771.500000000, A.D. 2028-Jan-01 00:00:00.0000, 1.065661075050308E+08, 3.992731207904239E+08, -1.070153661857124E+08,
$$EOE